GLOBALSTAR M063 [+]     
1 26081U 00008A   23324.39264194 -.00000081  00000+0  23401-4 0  9990
2 26081  51.9934 185.3436 0003679 303.9010 227.4864 11.86147835 89364
GLOBALSTAR M060 [-]     
1 26083U 00008C   23324.47259719  .00000030  00000+0  12063-2 0  9991
2 26083  52.0015 224.4842 0004422  43.9794 126.6825 12.17621119 82357
GLOBALSTAR M064 [-]     
1 26084U 00008D   23324.23388343 -.00000090  00000+0 -96379-4 0  9994
2 26084  52.0039 291.3703 0002005  34.7888 325.3075 11.88511545 98732
GLOBALSTAR M072 [+]     
1 31574U 07020D   23324.52117274 -.00000114  00000+0 -58777-4 0  9997
2 31574  52.0084 227.1358 0001257  64.7550 106.5335 12.62268363760242
GLOBALSTAR M071 [P]     
1 31576U 07020F   23324.51727468 -.00000099  00000+0  28702-4 0  9996
2 31576  52.0040 136.3975 0001022  90.4766 284.0857 12.62272939423169
